NORAD_CAT_ID,OBJECT_NAME,OBJECT_TYPE,EPOCH,MEAN_MOTION,ECCENTRICITY,INCLINATION,RA_OF_ASC_NODE,ARG_OF_PERICENTER,MEAN_ANOMALY,BSTAR,MEAN_MOTION_DOT,MEAN_MOTION_DDOT,TLE_LINE0,TLE_LINE1,TLE_LINE2,SEMIMAJOR_AXIS,PERIOD,APOGEE,PERIGEE,DECAYED
53591.0,STARLINK-4674,PAYLOAD,2023-09-20 12:02:11,15.08828352,0.0001214,53.2179,329.88,93.2837,266.8294,-0.00010716,-1.992e-05,0.0,0 STARLINK-4674,1 53591U 22104D   23263.50152188 -.00001992  00000-0 -10716-3 0  9999,2 53591  53.2179 329.8800 0001214  93.2837 266.8294 15.08828352 59915,6917.916,95.438,540.621,538.941,0.0
53591.0,STARLINK-4674,PAYLOAD,2023-09-21 10:17:34,15.08850417,0.0001295,53.2178,325.7179,86.3241,273.7899,4.83e-05,4.81e-06,0.0,0 STARLINK-4674,1 53591U 22104D   23264.42886891  .00000481  00000-0  48300-4 0  9997,2 53591  53.2178 325.7179 0001295  86.3241 273.7899 15.08850417 59015,6917.849,95.437,540.609,538.818,0.0
53591.0,STARLINK-4674,PAYLOAD,2023-09-21 11:52:57,15.08847132,0.000133,53.217,325.4209,78.3357,281.7785,0.00014897,2.084e-05,0.0,0 STARLINK-4674,1 53591U 22104D   23264.49511099  .00002084  00000-0  14897-3 0  9993,2 53591  53.2170 325.4209 0001330  78.3357 281.7785 15.08847132 60067,6917.859,95.437,540.644,538.804,0.0
53591.0,STARLINK-4674,PAYLOAD,2023-09-21 21:25:16,15.08845193,0.0001307,53.217,323.6373,79.9819,280.1321,0.00015443,2.171e-05,0.0,0 STARLINK-4674,1 53591U 22104D   23264.89255310  .00002171  00000-0  15443-3 0  9993,2 53591  53.2170 323.6373 0001307  79.9819 280.1321 15.08845193 60124,6917.865,95.437,540.634,538.825,0.0
53591.0,STARLINK-4674,PAYLOAD,2023-09-21 23:00:40,15.08841718,0.0001792,53.2177,323.3436,66.9393,293.1788,0.00029628,4.431e-05,0.0,0 STARLINK-4674,1 53591U 22104D   23264.95879808  .00004431  00000-0  29628-3 0  9995,2 53591  53.2177 323.3436 0001792  66.9393 293.1788 15.08841718 59093,6917.875,95.437,540.98,538.5,0.0
53591.0,STARLINK-4674,PAYLOAD,2023-09-22 10:08:22,15.0884281,0.0001693,53.2171,321.2612,65.8539,294.263,0.00038041,5.772e-05,0.0,0 STARLINK-4674,1 53591U 22104D   23265.42248003  .00005772  00000-0  38041-3 0  9993,2 53591  53.2171 321.2612 0001693  65.8539 294.2630 15.08842810 60207,6917.872,95.437,540.908,538.566,0.0
53591.0,STARLINK-4674,PAYLOAD,2023-09-23 09:59:08,15.08847096,0.0001594,53.217,316.8,65.324,294.7918,0.00012146,1.646e-05,0.0,0 STARLINK-4674,1 53591U 22104D   23266.41607535  .00001646  00000-0  12146-3 0  9996,2 53591  53.2170 316.8000 0001594  65.3240 294.7918 15.08847096 59316,6917.859,95.437,540.826,538.621,0.0
53591.0,STARLINK-4674,PAYLOAD,2023-09-24 03:28:24,15.08822541,0.0001361,53.2181,313.5295,90.693,269.4218,0.00065074,0.00010079,0.0,0 STARLINK-4674,1 53591U 22104D   23267.14472632  .00010079  00000-0  65074-3 0  9993,2 53591  53.2181 313.5295 0001361  90.6930 269.4218 15.08822541 59429,6917.934,95.439,540.74,538.857,0.0
53591.0,STARLINK-4674,PAYLOAD,2023-09-24 09:49:56,15.08827874,0.0001643,53.2188,312.3396,97.883,262.2348,0.00027104,4.027e-05,0.0,0 STARLINK-4674,1 53591U 22104D   23267.40968099  .00004027  00000-0  27104-3 0  9997,2 53591  53.2188 312.3396 0001643  97.8830 262.2348 15.08827874 60506,6917.917,95.438,540.919,538.646,0.0
53591.0,STARLINK-4674,PAYLOAD,2023-09-25 03:19:10,15.08838683,0.0001685,53.2187,309.0678,101.3682,258.7499,2.477e-05,1.06e-06,0.0,0 STARLINK-4674,1 53591U 22104D   23268.13831731  .00000106  00000-0  24770-4 0  9991,2 53591  53.2187 309.0678 0001685 101.3682 258.7499 15.08838683 59575,6917.884,95.438,540.915,538.584,0.0
53591.0,STARLINK-4674,PAYLOAD,2023-09-25 09:40:42,15.08843974,0.0001546,53.2178,307.878,97.8592,262.2576,7.7954e-05,9.53e-06,0.0,0 STARLINK-4674,1 53591U 22104D   23268.40327259  .00000953  00000-0  77954-4 0  9998,2 53591  53.2178 307.8780 0001546  97.8592 262.2576 15.08843974 60656,6917.868,95.437,540.803,538.664,0.0
53591.0,STARLINK-4674,PAYLOAD,2023-09-26 03:09:57,15.08835162,0.0001403,53.2174,304.6066,94.1741,265.9412,3.8575e-05,3.26e-06,0.0,0 STARLINK-4674,1 53591U 22104D   23269.13191958  .00000326  00000-0  38575-4 0  9994,2 53591  53.2174 304.6066 0001403  94.1741 265.9412 15.08835162 59727,6917.895,95.438,540.731,538.79,0.0
53591.0,STARLINK-4674,PAYLOAD,2023-09-26 07:56:07,15.0883878,0.0001367,53.2173,303.7149,89.3022,270.8127,6.1636e-05,6.93e-06,0.0,0 STARLINK-4674,1 53591U 22104D   23269.33063772  .00000693  00000-0  61636-4 0  9999,2 53591  53.2173 303.7149 0001367  89.3022 270.8127 15.08838780 60791,6917.884,95.438,540.695,538.803,0.0
53591.0,STARLINK-4674,PAYLOAD,2023-09-27 09:22:17,15.08837003,0.0001438,53.217,298.9566,95.6701,264.4455,6.6359e-05,7.68e-06,0.0,0 STARLINK-4674,1 53591U 22104D   23270.39048033  .00000768  00000-0  66359-4 0  9990,2 53591  53.2170 298.9566 0001438  95.6701 264.4455 15.08837003 59911,6917.89,95.438,540.749,538.76,0.0
53591.0,STARLINK-4674,PAYLOAD,2023-09-28 09:13:05,15.08834,0.0001398,53.2169,294.4959,88.0707,272.0445,4.529e-05,4.33e-06,0.0,0 STARLINK-4674,1 53591U 22104D   23271.38408718  .00000433  00000-0  45290-4 0  9990,2 53591  53.2169 294.4959 0001398  88.0707 272.0445 15.08834000 60069,6917.899,95.438,540.731,538.797,0.0
53591.0,STARLINK-4674,PAYLOAD,2023-09-29 07:28:28,15.08844042,0.0001363,53.2169,290.332,85.2369,274.8779,0.00011751,1.583e-05,0.0,0 STARLINK-4674,1 53591U 22104D   23272.31144138  .00001583  00000-0  11751-3 0  9998,2 53591  53.2169 290.3320 0001363  85.2369 274.8779 15.08844042 60204,6917.868,95.437,540.676,538.79,0.0
53591.0,STARLINK-4674,PAYLOAD,2023-09-30 05:43:52,15.08847518,0.0001443,53.2168,286.169,87.2183,272.8974,0.00013804,1.91e-05,0.0,0 STARLINK-4674,1 53591U 22104D   23273.23879714  .00001910  00000-0  13804-3 0  9990,2 53591  53.2168 286.1690 0001443  87.2183 272.8974 15.08847518 61387,6917.857,95.437,540.721,538.724,0.0
53591.0,STARLINK-4674,PAYLOAD,2023-09-30 18:26:57,15.08835759,0.0001594,53.2167,283.7897,86.4636,273.6539,3.1661e-05,2.16e-06,0.0,0 STARLINK-4674,1 53591U 22104D   23273.76872672  .00000216  00000-0  31661-4 0  9994,2 53591  53.2167 283.7897 0001594  86.4636 273.6539 15.08835759 60423,6917.893,95.438,540.861,538.656,0.0
53591.0,STARLINK-4674,PAYLOAD,2023-10-01 10:20:49,15.08841685,0.0001576,53.2165,280.8153,92.1468,267.9705,1.2444e-05,-9e-07,0.0,0 STARLINK-4674,1 53591U 22104D   23274.43112417 -.00000090  00000-0  12444-4 0  9992,2 53591  53.2165 280.8153 0001576  92.1468 267.9705 15.08841685 61563,6917.875,95.437,540.83,538.65,0.0
53591.0,STARLINK-4674,PAYLOAD,2023-10-02 00:39:17,15.08839091,0.0001684,53.2178,278.1369,97.6431,262.4752,-4.746e-05,-1.043e-05,0.0,0 STARLINK-4674,1 53591U 22104D   23275.02728753 -.00001043  00000-0 -47460-4 0  9990,2 53591  53.2178 278.1369 0001684  97.6431 262.4752 15.08839091 60611,6917.883,95.438,540.913,538.583,0.0
53591.0,STARLINK-4674,PAYLOAD,2023-10-02 07:00:49,15.08844303,0.0001594,53.2173,276.9485,93.5495,266.568,-1.159e-05,-4.73e-06,0.0,0 STARLINK-4674,1 53591U 22104D   23275.29224358 -.00000473  00000-0 -11590-4 0  9992,2 53591  53.2173 276.9485 0001594  93.5495 266.5680 15.08844303 61692,6917.867,95.437,540.835,538.63,0.0
53591.0,STARLINK-4674,PAYLOAD,2023-10-03 03:40:50,15.08837986,0.000152,53.2163,273.0846,87.745,272.3716,0.00015391,2.162e-05,0.0,0 STARLINK-4674,1 53591U 22104D   23276.15336658  .00002162  00000-0  15391-3 0  9992,2 53591  53.2163 273.0846 0001520  87.7450 272.3716 15.08837986 60788,6917.887,95.438,540.803,538.7,0.0
53591.0,STARLINK-4674,PAYLOAD,2023-10-03 06:51:37,15.08839653,0.0001542,53.2164,272.4878,87.1134,273.0035,0.00014629,2.041e-05,0.0,0 STARLINK-4674,1 53591U 22104D   23276.28584759  .00002041  00000-0  14629-3 0  9992,2 53591  53.2164 272.4878 0001542  87.1134 273.0035 15.08839653 61847,6917.881,95.438,540.813,538.68,0.0
53591.0,STARLINK-4674,PAYLOAD,2023-10-04 00:20:51,15.08847956,0.0001524,53.2166,269.2182,95.5317,264.5849,0.00016558,2.349e-05,0.0,0 STARLINK-4674,1 53591U 22104D   23277.01448194  .00002349  00000-0  16558-3 0  9990,2 53591  53.2166 269.2182 0001524  95.5317 264.5849 15.08847956 61952,6917.856,95.437,540.775,538.667,0.0
53591.0,STARLINK-4674,PAYLOAD,2023-10-04 16:14:41,15.08862188,0.0001591,53.2174,266.2451,95.4432,264.6742,0.00017095,2.435e-05,0.0,0 STARLINK-4674,1 53591U 22104D   23277.67686915  .00002435  00000-0  17095-3 0  9990,2 53591  53.2174 266.2451 0001591  95.4432 264.6742 15.08862188 61012,6917.813,95.436,540.778,538.577,0.0
53591.0,STARLINK-4674,PAYLOAD,2023-10-05 00:11:38,15.08824748,0.0001638,53.2175,264.7583,89.2931,270.8249,-0.00027867,-4.718e-05,0.0,0 STARLINK-4674,1 53591U 22104D   23278.00808773 -.00004718  00000-0 -27867-3 0  9992,2 53591  53.2175 264.7583 0001638  89.2931 270.8249 15.08824748 61065,6917.927,95.439,540.925,538.659,0.0
53591.0,STARLINK-4674,PAYLOAD,2023-10-05 08:08:34,15.08831975,0.000184,53.2178,263.2722,90.8356,269.2847,-0.00012871,-2.336e-05,0.0,0 STARLINK-4674,1 53591U 22104D   23278.33928701 -.00002336  00000-0 -12871-3 0  9995,2 53591  53.2178 263.2722 0001840  90.8356 269.2847 15.08831975 61113,6917.905,95.438,541.043,538.497,0.0
53591.0,STARLINK-4674,PAYLOAD,2023-10-05 16:05:30,15.08832211,0.0001847,53.2175,261.7848,87.8282,272.2922,-9.3502e-05,-1.776e-05,0.0,0 STARLINK-4674,1 53591U 22104D   23278.67048626 -.00001776  00000-0 -93502-4 0  9999,2 53591  53.2175 261.7848 0001847  87.8282 272.2922 15.08832211 62206,6917.904,95.438,541.047,538.491,0.0
53591.0,STARLINK-4674,PAYLOAD,2023-10-06 07:59:21,15.08843294,0.0001811,53.2162,258.8101,86.93,273.19,0.00079683,0.00012417,0.0,0 STARLINK-4674,1 53591U 22104D   23279.33289015  .00012417  00000-0  79683-3 0  9997,2 53591  53.2162 258.8101 0001811  86.9300 273.1900 15.08843294 61267,6917.87,95.437,540.988,538.482,0.0
53591.0,STARLINK-4674,PAYLOAD,2023-10-06 15:56:17,15.08841646,0.0001531,53.2157,257.3226,99.7049,260.4116,0.00049251,7.559e-05,0.0,0 STARLINK-4674,1 53591U 22104D   23279.66409012  .00007559  00000-0  49251-3 0  9993,2 53591  53.2157 257.3226 0001531  99.7049 260.4116 15.08841646 62352,6917.875,95.437,540.799,538.681,0.0
